{"type": "FeatureCollection", "features": [ {"type": "Feature", "properties": {"norad_id": 30501, "name": "FENGYUN 1C DEB", "group": "fengyun-1c-debris", "lat": -79.62393599581395, "lon": 103.3388200235898, "alt_km": 809.8962742216208, "timestamp": "2025-12-19T04:59:48.582907+00:00", "meta": {"OBJECT_NAME": "FENGYUN 1C DEB", "OBJECT_ID": "1999-025AHP", "EPOCH": "2025-12-18T22:57:50.906016", "MEAN_MOTION": 14.25383642, "ECCENTRICITY": 0.00405524, "INCLINATION": 99.0842, "RA_OF_ASC_NODE": 343.981, "ARG_OF_PERICENTER": 184.5639, "MEAN_ANOMALY": 230.8284, "EPHEMERIS_TYPE": 0, "CLASSIFICATION_TYPE": "U", "NORAD_CAT_ID": 30501, "ELEMENT_SET_NO": 999, "REV_AT_EPOCH": 97008, "BSTAR": 0.0012036092, "MEAN_MOTION_DOT": 2.816e-05, "MEAN_MOTION_DDOT": 0}, "tle": {"line1": "1 30501U 99025AHP 25352.95683919  .00002816  00000+0  12036-2 0  9991", "line2": "2 30501  99.0842 343.9810 0040552 184.5639 230.8284 14.25383642970082"}}, "geometry": {"type": "Point", "coordinates": [103.3388200235898, -79.62393599581395]}}, {"type": "Feature", "properties": {"norad_id": 30503, "name": "FENGYUN 1C DEB", "group": "fengyun-1c-debris", "lat": -79.8329289302263, "lon": -47.76101963125591, "alt_km": 840.1144105602152, "timestamp": "2025-12-19T04:59:48.582917+00:00", "meta": {"OBJECT_NAME": "FENGYUN 1C DEB", "OBJECT_ID": "1999-025AHR", "EPOCH": "2025-12-18T21:32:56.991840", "MEAN_MOTION": 14.1613164, "ECCENTRICITY": 0.00082848, "INCLINATION": 99.204, "RA_OF_ASC_NODE": 196.6225, "ARG_OF_PERICENTER": 247.6571, "MEAN_ANOMALY": 236.8206, "EPHEMERIS_TYPE": 0, "CLASSIFICATION_TYPE": "U", "NORAD_CAT_ID": 30503, "ELEMENT_SET_NO": 999, "REV_AT_EPOCH": 97433, "BSTAR": 0.00022781104, "MEAN_MOTION_DOT": 4.03e-06, "MEAN_MOTION_DDOT": 0}, "tle": {"line1": "1 30503U 99025AHR 25352.89788185  .00000403  00000+0  22781-3 0  9996", "line2": "2 30503  99.2040 196.6225 0008284 247.6571 236.8206 14.16131640974332"}}, "geometry": {"type": "Point", "coordinates": [-47.76101963125591, -79.8329289302263]}}, {"type": "Feature", "properties": {"norad_id": 30504, "name": "FENGYUN 1C DEB", "group": "fengyun-1c-debris", "lat": -39.89586001453139, "lon": -148.11259287891667, "alt_km": 755.0675950550567, "timestamp": "2025-12-19T04:59:48.582927+00:00", "meta": {"OBJECT_NAME": "FENGYUN 1C DEB", "OBJECT_ID": "1999-025AHS", "EPOCH": "2025-12-18T16:44:36.000096", "MEAN_MOTION": 14.20508785, "ECCENTRICITY": 0.01124371, "INCLINATION": 99.0245, "RA_OF_ASC_NODE": 39.0014, "ARG_OF_PERICENTER": 199.4641, "MEAN_ANOMALY": 290.9803, "EPHEMERIS_TYPE": 0, "CLASSIFICATION_TYPE": "U", "NORAD_CAT_ID": 30504, "ELEMENT_SET_NO": 999, "REV_AT_EPOCH": 97478, "BSTAR": 0.00044709991, "MEAN_MOTION_DOT": 9.77e-06, "MEAN_MOTION_DDOT": 0}, "tle": {"line1": "1 30504U 99025AHS 25352.69763889  .00000977  00000+0  44710-3 0  9991", "line2": "2 30504  99.0245  39.0014 0112437 199.4641 290.9803 14.20508785974788"}}, "geometry": {"type": "Point", "coordinates": [-148.11259287891667, -39.89586001453139]}}, {"type": "Feature", "properties": {"norad_id": 30505, "name": "FENGYUN 1C DEB", "group": "fengyun-1c-debris", "lat": 24.121455152455567, "lon": -103.01818741923596, "alt_km": 800.3320690886721, "timestamp": "2025-12-19T04:59:48.582937+00:00", "meta": {"OBJECT_NAME": "FENGYUN 1C DEB", "OBJECT_ID": "1999-025AHT", "EPOCH": "2025-12-18T17:09:30.225024", "MEAN_MOTION": 14.22077005, "ECCENTRICITY": 0.00639836, "INCLINATION": 98.9265, "RA_OF_ASC_NODE": 72.4471, "ARG_OF_PERICENTER": 225.0997, "MEAN_ANOMALY": 287.18, "EPHEMERIS_TYPE": 0, "CLASSIFICATION_TYPE": "U", "NORAD_CAT_ID": 30505, "ELEMENT_SET_NO": 999, "REV_AT_EPOCH": 97008, "BSTAR": 0.0012560554, "MEAN_MOTION_DOT": 2.793e-05, "MEAN_MOTION_DDOT": 0}, "tle": {"line1": "1 30505U 99025AHT 25352.71493316  .00002793  00000+0  12561-2 0  9996", "line2": "2 30505  98.9265  72.4471 0063983 225.0997 287.1800 14.22077005970080"}}, "geometry": {"type": "Point", "coordinates": [-103.01818741923596, 24.121455152455567]}}, {"type": "Feature", "properties": {"norad_id": 30506, "name": "FENGYUN 1C DEB", "group": "fengyun-1c-debris", "lat": -51.39390445922045, "lon": 166.96582276684074, "alt_km": 877.0942079563783, "timestamp": "2025-12-19T04:59:48.582947+00:00", "meta": {"OBJECT_NAME": "FENGYUN 1C DEB", "OBJECT_ID": "1999-025AHU", "EPOCH": "2025-12-18T23:03:49.893696", "MEAN_MOTION": 14.08657759, "ECCENTRICITY": 0.00699974, "INCLINATION": 98.7566, "RA_OF_ASC_NODE": 357.8556, "ARG_OF_PERICENTER": 330.3306, "MEAN_ANOMALY": 89.7066, "EPHEMERIS_TYPE": 0, "CLASSIFICATION_TYPE": "U", "NORAD_CAT_ID": 30506, "ELEMENT_SET_NO": 999, "REV_AT_EPOCH": 96909, "BSTAR": 0.00032540361, "MEAN_MOTION_DOT": 5.29e-06, "MEAN_MOTION_DDOT": 0}, "tle": {"line1": "1 30506U 99025AHU 25352.96099414  .00000529  00000+0  32540-3 0  9990", "line2": "2 30506  98.7566 357.8556 0069997 330.3306  89.7066 14.08657759969095"}}, "geometry": {"type": "Point", "coordinates": [166.96582276684074, -51.39390445922045]}}, {"type": "Feature", "properties": {"norad_id": 30507, "name": "FENGYUN 1C DEB", "group": "fengyun-1c-debris", "lat": 80.17317184688078, "lon": -55.858341633115934, "alt_km": 799.7593262657938, "timestamp": "2025-12-19T04:59:48.582957+00:00", "meta": {"OBJECT_NAME": "FENGYUN 1C DEB", "OBJECT_ID": "1999-025AHV", "EPOCH": "2025-12-18T03:12:43.165152", "MEAN_MOTION": 14.13201853, "ECCENTRICITY": 0.01284332, "INCLINATION": 99.0136, "RA_OF_ASC_NODE": 56.6572, "ARG_OF_PERICENTER": 161.232, "MEAN_ANOMALY": 231.1471, "EPHEMERIS_TYPE": 0, "CLASSIFICATION_TYPE": "U", "NORAD_CAT_ID": 30507, "ELEMENT_SET_NO": 999, "REV_AT_EPOCH": 96574, "BSTAR": 0.00092359001, "MEAN_MOTION_DOT": 1.825e-05, "MEAN_MOTION_DDOT": 0}, "tle": {"line1": "1 30507U 99025AHV 25352.13383293  .00001825  00000+0  92359-3 0  9995", "line2": "2 30507  99.0136  56.6572 0128433 161.2320 231.1471 14.13201853965740"}}, "geometry": {"type": "Point", "coordinates": [-55.858341633115934, 80.17317184688078]}}, {"type": "Feature", "properties": {"norad_id": 30509, "name": "FENGYUN 1C DEB", "group": "fengyun-1c-debris", "lat": 38.750338001082056, "lon": 51.516155093260515, "alt_km": 870.570863132245, "timestamp": "2025-12-19T04:59:48.582967+00:00", "meta": {"OBJECT_NAME": "FENGYUN 1C DEB", "OBJECT_ID": "1999-025AHX", "EPOCH": "2025-12-18T14:56:52.219968", "MEAN_MOTION": 14.07688654, "ECCENTRICITY": 0.01023414, "INCLINATION": 98.4661, "RA_OF_ASC_NODE": 224.1018, "ARG_OF_PERICENTER": 46.8967, "MEAN_ANOMALY": 7.7612, "EPHEMERIS_TYPE": 0, "CLASSIFICATION_TYPE": "U", "NORAD_CAT_ID": 30509, "ELEMENT_SET_NO": 999, "REV_AT_EPOCH": 95805, "BSTAR": 0.0015670692, "MEAN_MOTION_DOT": 2.74e-05, "MEAN_MOTION_DDOT": 0}, "tle": {"line1": "1 30509U 99025AHX 25352.62282662  .00002740  00000+0  15671-2 0  9997", "line2": "2 30509  98.4661 224.1018 0102341  46.8967   7.7612 14.07688654958051"}}, "geometry": {"type": "Point", "coordinates": [51.516155093260515, 38.750338001082056]}}, {"type": "Feature", "properties": {"norad_id": 30510, "name": "FENGYUN 1C DEB", "group": "fengyun-1c-debris", "lat": -48.122078915302865, "lon": 15.910076803170453, "alt_km": 910.5765503317389, "timestamp": "2025-12-19T04:59:48.582977+00:00", "meta": {"OBJECT_NAME": "FENGYUN 1C DEB", "OBJECT_ID": "1999-025AHY", "EPOCH": "2025-12-18T22:45:05.229216", "MEAN_MOTION": 14.12879356, "ECCENTRICITY": 0.00786194, "INCLINATION": 99.2444, "RA_OF_ASC_NODE": 5.1754, "ARG_OF_PERICENTER": 148.978, "MEAN_ANOMALY": 279.0003, "EPHEMERIS_TYPE": 0, "CLASSIFICATION_TYPE": "U", "NORAD_CAT_ID": 30510, "ELEMENT_SET_NO": 999, "REV_AT_EPOCH": 96662, "BSTAR": 0.0009836884, "MEAN_MOTION_DOT": 1.838e-05, "MEAN_MOTION_DDOT": 0}, "tle": {"line1": "1 30510U 99025AHY 25352.94797719  .00001838  00000+0  98369-3 0  9991", "line2": "2 30510  99.2444   5.1754 0078619 148.9780 279.0003 14.12879356966629"}}, "geometry": {"type": "Point", "coordinates": [15.910076803170453, -48.122078915302865]}}, {"type": "Feature", "properties": {"norad_id": 30514, "name": "FENGYUN 1C DEB", "group": "fengyun-1c-debris", "lat": -56.30499881196286, "lon": -176.25336917155727, "alt_km": 902.8186406023779, "timestamp": "2025-12-19T04:59:48.582988+00:00", "meta": {"OBJECT_NAME": "FENGYUN 1C DEB", "OBJECT_ID": "1999-025AJC", "EPOCH": "2025-12-18T17:51:40.444704", "MEAN_MOTION": 14.34374626, "ECCENTRICITY": 0.01743801, "INCLINATION": 98.4125, "RA_OF_ASC_NODE": 16.1176, "ARG_OF_PERICENTER": 76.3429, "MEAN_ANOMALY": 285.7106, "EPHEMERIS_TYPE": 0, "CLASSIFICATION_TYPE": "U", "NORAD_CAT_ID": 30514, "ELEMENT_SET_NO": 999, "REV_AT_EPOCH": 98311, "BSTAR": 0.00037877299, "MEAN_MOTION_DOT": 1.218e-05, "MEAN_MOTION_DDOT": 0}, "tle": {"line1": "1 30514U 99025AJC 25352.74421811  .00001218  00000+0  37877-3 0  9999", "line2": "2 30514  98.4125  16.1176 0174380  76.3429 285.7106 14.34374626983111"}}, "geometry": {"type": "Point", "coordinates": [-176.25336917155727, -56.30499881196286]}}, {"type": "Feature", "properties": {"norad_id": 30515, "name": "FENGYUN 1C DEB", "group": "fengyun-1c-debris", "lat": -28.792913660620986, "lon": 43.86675220456974, "alt_km": 1346.6042233306835, "timestamp": "2025-12-19T04:59:48.582998+00:00", "meta": {"OBJECT_NAME": "FENGYUN 1C DEB", "OBJECT_ID": "1999-025AJD", "EPOCH": "2025-12-18T21:33:05.188608", "MEAN_MOTION": 13.6381152, "ECCENTRICITY": 0.04969793, "INCLINATION": 98.5094, "RA_OF_ASC_NODE": 228.3135, "ARG_OF_PERICENTER": 58.3478, "MEAN_ANOMALY": 65.5921, "EPHEMERIS_TYPE": 0, "CLASSIFICATION_TYPE": "U", "NORAD_CAT_ID": 30515, "ELEMENT_SET_NO": 999, "REV_AT_EPOCH": 93414, "BSTAR": 0.00082682956, "MEAN_MOTION_DOT": 1.489e-05, "MEAN_MOTION_DDOT": 0}, "tle": {"line1": "1 30515U 99025AJD 25352.89797672  .00001489  00000+0  82683-3 0  9992", "line2": "2 30515  98.5094 228.3135 0496979  58.3478  65.5921 13.63811520934143"}}, "geometry": {"type": "Point", "coordinates": [43.86675220456974, -28.792913660620986]}}]}